{
"type": "FeatureCollection",
"name": "g8_emergency",
"crs": { "type": "name", "properties": { "name": "urn:ogc:def:crs:OGC:1.3:CRS84" } },
"features": [
{ "type": "Feature", "properties": { "element": "node", "id": 255913888, "addr:city": "اسلام آباد", "addr:city:ar": "إسلام آباد", "addr:city:en": "Islamabad", "addr:city:ks": "اِسلام آبادٖ", "addr:city:pnb": "اسلام آباد", "addr:city:ps": "اسلام آباد", "addr:city:sd": "اسلام آباد", "addr:city:ur": "اسلام آباد", "addr:street": "Service Road East G8", "amenity": "police", "name": "Rescue 15", "healthcare": null, "name:ur": null, "name:en": null, "emergency": null, "healthcare:speciality": null, "area": null, "name:ar": null }, "geometry": { "type": "Point", "coordinates": [ 73.0597372, 33.6994994 ] } },
{ "type": "Feature", "properties": { "element": "node", "id": 4899052823, "addr:city": "اسلام آباد", "addr:city:ar": "إسلام آباد", "addr:city:en": "Islamabad", "addr:city:ks": "اِسلام آبادٖ", "addr:city:pnb": "اسلام آباد", "addr:city:ps": "اسلام آباد", "addr:city:sd": "اسلام آباد", "addr:city:ur": "اسلام آباد", "addr:street": "Street 9", "amenity": "hospital", "name": "National Institute for Handicapped", "healthcare": "hospital", "name:ur": "نیشنل انسٹی ٹیوٹ فار ہینڈی کیپڈ", "name:en": null, "emergency": null, "healthcare:speciality": null, "area": null, "name:ar": null }, "geometry": { "type": "Point", "coordinates": [ 73.0412787, 33.6960409 ] } },
{ "type": "Feature", "properties": { "element": "node", "id": 4899052824, "addr:city": "اسلام آباد", "addr:city:ar": "إسلام آباد", "addr:city:en": "Islamabad", "addr:city:ks": "اِسلام آبادٖ", "addr:city:pnb": "اسلام آباد", "addr:city:ps": "اسلام آباد", "addr:city:sd": "اسلام آباد", "addr:city:ur": "اسلام آباد", "addr:street": "Street 9", "amenity": "hospital", "name": "National Institute of Rehabilitation Medicine", "healthcare": "hospital", "name:ur": "نیشنل انسٹی ٹیوٹ آف ری ہیبلیٹیشن میڈیسن", "name:en": null, "emergency": null, "healthcare:speciality": null, "area": null, "name:ar": null }, "geometry": { "type": "Point", "coordinates": [ 73.0419063, 33.6963265 ] } },
{ "type": "Feature", "properties": { "element": "node", "id": 6265094288, "addr:city": "اسلام آباد", "addr:city:ar": null, "addr:city:en": null, "addr:city:ks": null, "addr:city:pnb": null, "addr:city:ps": null, "addr:city:sd": null, "addr:city:ur": null, "addr:street": "حنا روڈ", "amenity": "hospital", "name": "نوری ہسپتال اسلام آباد", "healthcare": "hospital", "name:ur": "نوری ہسپتال اسلام آباد", "name:en": "Noori Hospital Islamabad", "emergency": null, "healthcare:speciality": null, "area": null, "name:ar": null }, "geometry": { "type": "Point", "coordinates": [ 73.052962, 33.6990693 ] } },
{ "type": "Feature", "properties": { "element": "node", "id": 8841662156, "addr:city": null, "addr:city:ar": null, "addr:city:en": null, "addr:city:ks": null, "addr:city:pnb": null, "addr:city:ps": null, "addr:city:sd": null, "addr:city:ur": null, "addr:street": null, "amenity": "hospital", "name": "Max Health Hospital", "healthcare": "hospital", "name:ur": "میکس ہیلتھ ہسپتال", "name:en": null, "emergency": null, "healthcare:speciality": null, "area": null, "name:ar": null }, "geometry": { "type": "Point", "coordinates": [ 73.0491988, 33.6976835 ] } },
{ "type": "Feature", "properties": { "element": "node", "id": 11068308487, "addr:city": null, "addr:city:ar": null, "addr:city:en": null, "addr:city:ks": null, "addr:city:pnb": null, "addr:city:ps": null, "addr:city:sd": null, "addr:city:ur": null, "addr:street": null, "amenity": "hospital", "name": "Testing Hospital Ismail", "healthcare": "hospital", "name:ur": null, "name:en": null, "emergency": "yes", "healthcare:speciality": "internal", "area": null, "name:ar": null }, "geometry": { "type": "Point", "coordinates": [ 73.056917, 33.7040908 ] } },
{ "type": "Feature", "properties": { "element": "node", "id": 11217189672, "addr:city": null, "addr:city:ar": null, "addr:city:en": null, "addr:city:ks": null, "addr:city:pnb": null, "addr:city:ps": null, "addr:city:sd": null, "addr:city:ur": null, "addr:street": "G-8 Markaz", "amenity": "hospital", "name": "Advanced International Hospital G-8 Markaz", "healthcare": "hospital", "name:ur": "ایڈوانسڈ انٹرنیشنل ہسپتال", "name:en": null, "emergency": null, "healthcare:speciality": null, "area": null, "name:ar": null }, "geometry": { "type": "Point", "coordinates": [ 73.0502887, 33.6963846 ] } },
{ "type": "Feature", "properties": { "element": "way", "id": 22328601, "addr:city": "اسلام آباد", "addr:city:ar": "إسلام آباد", "addr:city:en": "Islamabad", "addr:city:ks": "اِسلام آبادٖ", "addr:city:pnb": "اسلام آباد", "addr:city:ps": "اسلام آباد", "addr:city:sd": "اسلام آباد", "addr:city:ur": "اسلام آباد", "addr:street": "Ibn-e-Sina Road", "amenity": "hospital", "name": "Pakistan Institute for Medical Sciences (PIMS)", "healthcare": "hospital", "name:ur": null, "name:en": null, "emergency": "yes", "healthcare:speciality": null, "area": null, "name:ar": null }, "geometry": { "type": "Polygon", "coordinates": [ [ [ 73.0468753, 33.7030436 ], [ 73.0495329, 33.7043892 ], [ 73.051087, 33.705229 ], [ 73.0511913, 33.7052846 ], [ 73.0540663, 33.7068191 ], [ 73.0574645, 33.7024719 ], [ 73.0584013, 33.7011955 ], [ 73.0547602, 33.6992871 ], [ 73.0539458, 33.7003982 ], [ 73.0523497, 33.6995849 ], [ 73.0531624, 33.6984558 ], [ 73.0515289, 33.6975922 ], [ 73.04952, 33.7004128 ], [ 73.0484605, 33.6998527 ], [ 73.0483313, 33.7000076 ], [ 73.0480994, 33.7002854 ], [ 73.0478945, 33.700531 ], [ 73.0475941, 33.7020663 ], [ 73.0468753, 33.7030436 ] ] ] } },
{ "type": "Feature", "properties": { "element": "way", "id": 22999246, "addr:city": "اسلام آباد", "addr:city:ar": null, "addr:city:en": null, "addr:city:ks": null, "addr:city:pnb": null, "addr:city:ps": null, "addr:city:sd": null, "addr:city:ur": null, "addr:street": "حنا روڈ", "amenity": "hospital", "name": "نوری ہسپتال", "healthcare": "hospital", "name:ur": "نوری ہسپتال", "name:en": "Noori Hospital", "emergency": null, "healthcare:speciality": null, "area": "yes", "name:ar": "مستشفى نوري" }, "geometry": { "type": "Polygon", "coordinates": [ [ [ 73.0539296, 33.7003723 ], [ 73.0547223, 33.699272 ], [ 73.0531847, 33.6984702 ], [ 73.0523826, 33.6995788 ], [ 73.0539296, 33.7003723 ] ] ] } }
]
}
